{"type": "FeatureCollection", "features": [ {"type": "Feature", "properties": {"norad_id": 37834, "name": "INTELSAT 18 (IS-18)", "group": "intelsat", "lat": 0.020576558804305544, "lon": 73.41667228131259, "alt_km": 35792.67850772008, "timestamp": "2025-12-27T10:28:58.457944+00:00", "meta": {"OBJECT_NAME": "INTELSAT 18 (IS-18)", "OBJECT_ID": "2011-056A", "EPOCH": "2025-12-27T01:52:27.147072", "MEAN_MOTION": 1.00271983, "ECCENTRICITY": 0.0001994, "INCLINATION": 0.0131, "RA_OF_ASC_NODE": 303.824, "ARG_OF_PERICENTER": 347.336, "MEAN_ANOMALY": 12.7657, "EPHEMERIS_TYPE": 0, "CLASSIFICATION_TYPE": "U", "NORAD_CAT_ID": 37834, "ELEMENT_SET_NO": 999, "REV_AT_EPOCH": 5208, "BSTAR": 0, "MEAN_MOTION_DOT": 7.5e-07, "MEAN_MOTION_DDOT": 0}, "tle": {"line1": "1 37834U 11056A   25361.07809198  .00000075  00000+0  00000+0 0  9997", "line2": "2 37834   0.0131 303.8240 0001994 347.3360  12.7657  1.00271983 52085"}}, "geometry": {"type": "Point", "coordinates": [73.41667228131259, 0.020576558804305544]}}, {"type": "Feature", "properties": {"norad_id": 38098, "name": "INTELSAT 22 (IS-22)", "group": "intelsat", "lat": -0.0465422040004135, "lon": -34.502940479134615, "alt_km": 35778.905429112696, "timestamp": "2025-12-27T10:28:58.457971+00:00", "meta": {"OBJECT_NAME": "INTELSAT 22 (IS-22)", "OBJECT_ID": "2012-011A", "EPOCH": "2025-12-27T03:04:20.260128", "MEAN_MOTION": 1.00270695, "ECCENTRICITY": 0.0001958, "INCLINATION": 0.0346, "RA_OF_ASC_NODE": 54.9958, "ARG_OF_PERICENTER": 245.4385, "MEAN_ANOMALY": 273.5982, "EPHEMERIS_TYPE": 0, "CLASSIFICATION_TYPE": "U", "NORAD_CAT_ID": 38098, "ELEMENT_SET_NO": 999, "REV_AT_EPOCH": 546, "BSTAR": 0, "MEAN_MOTION_DOT": 0, "MEAN_MOTION_DDOT": 0}, "tle": {"line1": "1 38098U 12011A   25361.12801227  .00000000  00000+0  00000+0 0  9991", "line2": "2 38098   0.0346  54.9958 0001958 245.4385 273.5982  1.00270695  5468"}}, "geometry": {"type": "Point", "coordinates": [-34.502940479134615, -0.0465422040004135]}}, {"type": "Feature", "properties": {"norad_id": 38356, "name": "INTELSAT 19 (IS-19)", "group": "intelsat", "lat": 0.02409926317836774, "lon": 59.43343601478167, "alt_km": 35796.75810788738, "timestamp": "2025-12-27T10:28:58.457984+00:00", "meta": {"OBJECT_NAME": "INTELSAT 19 (IS-19)", "OBJECT_ID": "2012-030A", "EPOCH": "2025-12-27T03:04:38.558784", "MEAN_MOTION": 1.00271928, "ECCENTRICITY": 0.0003054, "INCLINATION": 0.0096, "RA_OF_ASC_NODE": 355.6735, "ARG_OF_PERICENTER": 277.7039, "MEAN_ANOMALY": 34.6566, "EPHEMERIS_TYPE": 0, "CLASSIFICATION_TYPE": "U", "NORAD_CAT_ID": 38356, "ELEMENT_SET_NO": 999, "REV_AT_EPOCH": 4872, "BSTAR": 0, "MEAN_MOTION_DOT": -3.4e-07, "MEAN_MOTION_DDOT": 0}, "tle": {"line1": "1 38356U 12030A   25361.12822406 -.00000034  00000+0  00000+0 0  9999", "line2": "2 38356   0.0096 355.6735 0003054 277.7039  34.6566  1.00271928 48724"}}, "geometry": {"type": "Point", "coordinates": [59.43343601478167, 0.02409926317836774]}}, {"type": "Feature", "properties": {"norad_id": 38740, "name": "INTELSAT 20 (IS-20)", "group": "intelsat", "lat": -0.024132728410177332, "lon": -38.08370044887529, "alt_km": 35791.91231256931, "timestamp": "2025-12-27T10:28:58.457996+00:00", "meta": {"OBJECT_NAME": "INTELSAT 20 (IS-20)", "OBJECT_ID": "2012-043A", "EPOCH": "2025-12-26T23:37:51.657024", "MEAN_MOTION": 1.00270086, "ECCENTRICITY": 0.0001654, "INCLINATION": 0.0132, "RA_OF_ASC_NODE": 63.1517, "ARG_OF_PERICENTER": 118.2124, "MEAN_ANOMALY": 337.3262, "EPHEMERIS_TYPE": 0, "CLASSIFICATION_TYPE": "U", "NORAD_CAT_ID": 38740, "ELEMENT_SET_NO": 999, "REV_AT_EPOCH": 4902, "BSTAR": 0, "MEAN_MOTION_DOT": -2e-08, "MEAN_MOTION_DDOT": 0}, "tle": {"line1": "1 38740U 12043A   25360.98462566 -.00000002  00000+0  00000+0 0  9995", "line2": "2 38740   0.0132  63.1517 0001654 118.2124 337.3262  1.00270086 49023"}}, "geometry": {"type": "Point", "coordinates": [-38.08370044887529, -0.024132728410177332]}}, {"type": "Feature", "properties": {"norad_id": 38749, "name": "INTELSAT 21 (IS-21)", "group": "intelsat", "lat": -0.00800807767487936, "lon": -164.60934176680502, "alt_km": 35785.032081501544, "timestamp": "2025-12-27T10:28:58.458008+00:00", "meta": {"OBJECT_NAME": "INTELSAT 21 (IS-21)", "OBJECT_ID": "2012-045A", "EPOCH": "2025-12-27T03:48:48.229056", "MEAN_MOTION": 1.00269176, "ECCENTRICITY": 0.0001956, "INCLINATION": 0.0214, "RA_OF_ASC_NODE": 2.4817, "ARG_OF_PERICENTER": 270.2297, "MEAN_ANOMALY": 182.3947, "EPHEMERIS_TYPE": 0, "CLASSIFICATION_TYPE": "U", "NORAD_CAT_ID": 38749, "ELEMENT_SET_NO": 999, "REV_AT_EPOCH": 4880, "BSTAR": 0, "MEAN_MOTION_DOT": 0, "MEAN_MOTION_DDOT": 0}, "tle": {"line1": "1 38749U 12045A   25361.15889154  .00000000  00000+0  00000+0 0  9999", "line2": "2 38749   0.0214   2.4817 0001956 270.2297 182.3947  1.00269176 48808"}}, "geometry": {"type": "Point", "coordinates": [-164.60934176680502, -0.00800807767487936]}}, {"type": "Feature", "properties": {"norad_id": 38867, "name": "INTELSAT 23 (IS-23)", "group": "intelsat", "lat": 0.013863432991888665, "lon": -159.58905949631563, "alt_km": 35786.699212580716, "timestamp": "2025-12-27T10:28:58.458020+00:00", "meta": {"OBJECT_NAME": "INTELSAT 23 (IS-23)", "OBJECT_ID": "2012-057A", "EPOCH": "2025-12-27T02:28:38.678016", "MEAN_MOTION": 1.0027277, "ECCENTRICITY": 6.8e-05, "INCLINATION": 0.0208, "RA_OF_ASC_NODE": 81.4413, "ARG_OF_PERICENTER": 226.5034, "MEAN_ANOMALY": 132.0687, "EPHEMERIS_TYPE": 0, "CLASSIFICATION_TYPE": "U", "NORAD_CAT_ID": 38867, "ELEMENT_SET_NO": 999, "REV_AT_EPOCH": 4822, "BSTAR": 0, "MEAN_MOTION_DOT": -2.62e-06, "MEAN_MOTION_DDOT": 0}, "tle": {"line1": "1 38867U 12057A   25361.10322544 -.00000262  00000+0  00000+0 0  9994", "line2": "2 38867   0.0208  81.4413 0000680 226.5034 132.0687  1.00272770 48220"}}, "geometry": {"type": "Point", "coordinates": [-159.58905949631563, 0.013863432991888665]}}, {"type": "Feature", "properties": {"norad_id": 39360, "name": "FM-6", "group": "intelsat", "lat": 0.030175576270388645, "lon": 137.18097729322895, "alt_km": 35777.53086229894, "timestamp": "2025-12-27T10:28:58.458031+00:00", "meta": {"OBJECT_NAME": "FM-6", "OBJECT_ID": "2013-058A", "EPOCH": "2025-12-25T23:15:38.712384", "MEAN_MOTION": 1.00267622, "ECCENTRICITY": 0.00031338, "INCLINATION": 0.0194, "RA_OF_ASC_NODE": 74.6696, "ARG_OF_PERICENTER": 105.3027, "MEAN_ANOMALY": 147.4825, "EPHEMERIS_TYPE": 0, "CLASSIFICATION_TYPE": "U", "NORAD_CAT_ID": 39360, "ELEMENT_SET_NO": 999, "REV_AT_EPOCH": 4433, "BSTAR": 0, "MEAN_MOTION_DOT": 5e-08, "MEAN_MOTION_DDOT": 0}, "tle": {"line1": "1 39360U 13058A   25359.96919806  .00000005  00000+0  00000+0 0  9993", "line2": "2 39360   0.0194  74.6696 0003133 105.3027 147.4825  1.00267622 44334"}}, "geometry": {"type": "Point", "coordinates": [137.18097729322895, 0.030175576270388645]}}, {"type": "Feature", "properties": {"norad_id": 40271, "name": "INTELSAT 30 (IS-30)", "group": "intelsat", "lat": 0.027511532325393655, "lon": 158.36151812309137, "alt_km": 35784.37823709641, "timestamp": "2025-12-27T10:28:58.458043+00:00", "meta": {"OBJECT_NAME": "INTELSAT 30 (IS-30)", "OBJECT_ID": "2014-062A", "EPOCH": "2025-12-26T05:38:38.555808", "MEAN_MOTION": 1.00271488, "ECCENTRICITY": 0.0001425, "INCLINATION": 0.0176, "RA_OF_ASC_NODE": 41.6763, "ARG_OF_PERICENTER": 44.2324, "MEAN_ANOMALY": 358.6785, "EPHEMERIS_TYPE": 0, "CLASSIFICATION_TYPE": "U", "NORAD_CAT_ID": 40271, "ELEMENT_SET_NO": 999, "REV_AT_EPOCH": 506, "BSTAR": 0, "MEAN_MOTION_DOT": -1.29e-06, "MEAN_MOTION_DDOT": 0}, "tle": {"line1": "1 40271U 14062A   25360.23516847 -.00000129  00000+0  00000+0 0  9990", "line2": "2 40271   0.0176  41.6763 0001425  44.2324 358.6785  1.00271488  5062"}}, "geometry": {"type": "Point", "coordinates": [158.36151812309137, 0.027511532325393655]}}, {"type": "Feature", "properties": {"norad_id": 40333, "name": "DIRECTV 14", "group": "intelsat", "lat": 0.00897448144351876, "lon": 154.27326038498967, "alt_km": 35783.63919283358, "timestamp": "2025-12-27T10:28:58.458055+00:00", "meta": {"OBJECT_NAME": "DIRECTV 14", "OBJECT_ID": "2014-078B", "EPOCH": "2025-12-24T12:37:43.773312", "MEAN_MOTION": 1.00279829, "ECCENTRICITY": 3.885e-05, "INCLINATION": 0.0184, "RA_OF_ASC_NODE": 340.4706, "ARG_OF_PERICENTER": 254.7884, "MEAN_ANOMALY": 308.2619, "EPHEMERIS_TYPE": 0, "CLASSIFICATION_TYPE": "U", "NORAD_CAT_ID": 40333, "ELEMENT_SET_NO": 999, "REV_AT_EPOCH": 4029, "BSTAR": 0, "MEAN_MOTION_DOT": -1.06e-06, "MEAN_MOTION_DDOT": 0}, "tle": {"line1": "1 40333U 14078B   25358.52620108 -.00000106  00000+0  00000+0 0  9996", "line2": "2 40333   0.0184 340.4706 0000388 254.7884 308.2619  1.00279829 40291"}}, "geometry": {"type": "Point", "coordinates": [154.27326038498967, 0.00897448144351876]}}, {"type": "Feature", "properties": {"norad_id": 40663, "name": "DIRECTV 15", "group": "intelsat", "lat": 0.028791147200795265, "lon": 150.50002609491713, "alt_km": 35785.44113385559, "timestamp": "2025-12-27T10:28:58.458067+00:00", "meta": {"OBJECT_NAME": "DIRECTV 15", "OBJECT_ID": "2015-026A", "EPOCH": "2025-12-26T07:34:38.576064", "MEAN_MOTION": 1.00269733, "ECCENTRICITY": 3.61e-05, "INCLINATION": 0.018, "RA_OF_ASC_NODE": 29.1854, "ARG_OF_PERICENTER": 84.7041, "MEAN_ANOMALY": 351.9356, "EPHEMERIS_TYPE": 0, "CLASSIFICATION_TYPE": "U", "NORAD_CAT_ID": 40663, "ELEMENT_SET_NO": 999, "REV_AT_EPOCH": 3873, "BSTAR": 0, "MEAN_MOTION_DOT": -8e-07, "MEAN_MOTION_DDOT": 0}, "tle": {"line1": "1 40663U 15026A   25360.31572426 -.00000080  00000+0  00000+0 0  9996", "line2": "2 40663   0.0180  29.1854 0000361  84.7041 351.9356  1.00269733 38737"}}, "geometry": {"type": "Point", "coordinates": [150.50002609491713, 0.028791147200795265]}}]}